COSMOS 1743             
1 16719U 86034A   25319.36738536  .00030314  00000+0  53178-3 0  9993
2 16719  82.5377 192.9789 0006807   8.4348 351.7016 15.50372187162495
SL-14 R/B               
1 16792U 86046B   25318.62508157  .00000914  00000+0  10292-3 0  9992
2 16792  82.4830 188.8635 0021733 247.1474 112.7447 14.85444767109327
SL-14 R/B               
1 16882U 86055B   25319.30900087  .00001168  00000+0  13226-3 0  9998
2 16882  82.5218 234.1438 0018906 355.6310 125.3178 14.85489436102388
AJISAI (EGS)            
1 16908U 86061A   25319.52142545 -.00000100  00000+0 -16041-4 0  9991
2 16908  50.0089  84.4097 0011192 357.3672  83.0418 12.44514154453789
COSMOS 1812             
1 17295U 87003A   25319.49442190  .00079257  00000+0  65588-3 0  9999
2 17295  82.4879 321.3816 0005553 132.1873 227.9861 15.69967846126376
SL-14 R/B               
1 17567U 87024B   25318.43088906  .00001031  00000+0  11508-3 0  9996
2 17567  82.5300 201.0444 0016815 284.0912  75.8436 14.85984648 71017
COSMOS 1833             
1 17589U 87027A   25319.39235807 -.00000172  00000+0 -66482-4 0  9992
2 17589  70.9144 206.2657 0021362  10.2471 349.9081 14.13019351994165
SL-16 R/B               
1 17590U 87027B   25319.48595854 -.00000113  00000+0 -32412-4 0  9996
2 17590  71.0004 157.1467 0007248 288.1362  71.8972 14.17147660999208
SL-14 R/B               
1 17912U 87038B   25319.51198661  .00001087  00000+0  12363-3 0  9996
2 17912  82.5038  44.3411 0019373 177.6977 182.4332 14.85223567 62286
COSMOS 1844             
1 17973U 87041A   25319.33634344  .00000368  00000+0  21580-3 0  9992
2 17973  70.8991 275.3675 0031512 198.5544 161.4431 14.14524008987414
SL-14 R/B               
1 18153U 87055B   25319.44131507  .00001087  00000+0  12273-3 0  9991
2 18153  82.4977  96.7133 0021518  34.7586 325.5030 14.85479301 52979
COSMOS 1867             
1 18187U 87060A   25319.21675323  .00000086  00000+0  69867-4 0  9998
2 18187  65.0103 267.2761 0013691 268.3774  91.5743 14.31479812  3552
