CCSDS_OMM_VERS = 2.0
CREATION_DATE  = 
ORIGINATOR     = 

OBJECT_NAME    = COSMOS 1743
OBJECT_ID      = 1986-034A
CENTER_NAME    = EARTH
REF_FRAME      = TEME
TIME_SYSTEM    = UTC
MEAN_ELEMENT_THEORY = SGP/SGP4

EPOCH          = 2025-11-15T08:49:02.095104
MEAN_MOTION    = 15.50372187
ECCENTRICITY   = .0006807
INCLINATION    = 82.5377
RA_OF_ASC_NODE = 192.9789
ARG_OF_PERICENTER = 8.4348
MEAN_ANOMALY   = 351.7016

EPHEMERIS_TYPE = 0
CLASSIFICATION_TYPE = U
NORAD_CAT_ID   = 16719
ELEMENT_SET_NO = 999
REV_AT_EPOCH   = 16249
BSTAR          = .53178E-3
MEAN_MOTION_DOT = .30314E-3
MEAN_MOTION_DDOT = 0

CCSDS_OMM_VERS = 2.0
CREATION_DATE  = 
ORIGINATOR     = 

OBJECT_NAME    = SL-14 R/B
OBJECT_ID      = 1986-046B
CENTER_NAME    = EARTH
REF_FRAME      = TEME
TIME_SYSTEM    = UTC
MEAN_ELEMENT_THEORY = SGP/SGP4

EPOCH          = 2025-11-14T15:00:07.047648
MEAN_MOTION    = 14.85444767
ECCENTRICITY   = .0021733
INCLINATION    = 82.4830
RA_OF_ASC_NODE = 188.8635
ARG_OF_PERICENTER = 247.1474
MEAN_ANOMALY   = 112.7447

EPHEMERIS_TYPE = 0
CLASSIFICATION_TYPE = U
NORAD_CAT_ID   = 16792
ELEMENT_SET_NO = 999
REV_AT_EPOCH   = 10932
BSTAR          = .10292E-3
MEAN_MOTION_DOT = .914E-5
MEAN_MOTION_DDOT = 0

CCSDS_OMM_VERS = 2.0
CREATION_DATE  = 
ORIGINATOR     = 

OBJECT_NAME    = SL-14 R/B
OBJECT_ID      = 1986-055B
CENTER_NAME    = EARTH
REF_FRAME      = TEME
TIME_SYSTEM    = UTC
MEAN_ELEMENT_THEORY = SGP/SGP4

EPOCH          = 2025-11-15T07:24:57.675168
MEAN_MOTION    = 14.85489436
ECCENTRICITY   = .0018906
INCLINATION    = 82.5218
RA_OF_ASC_NODE = 234.1438
ARG_OF_PERICENTER = 355.6310
MEAN_ANOMALY   = 125.3178

EPHEMERIS_TYPE = 0
CLASSIFICATION_TYPE = U
NORAD_CAT_ID   = 16882
ELEMENT_SET_NO = 999
REV_AT_EPOCH   = 10238
BSTAR          = .13226E-3
MEAN_MOTION_DOT = .1168E-4
MEAN_MOTION_DDOT = 0

CCSDS_OMM_VERS = 2.0
CREATION_DATE  = 
ORIGINATOR     = 

OBJECT_NAME    = AJISAI (EGS)
OBJECT_ID      = 1986-061A
CENTER_NAME    = EARTH
REF_FRAME      = TEME
TIME_SYSTEM    = UTC
MEAN_ELEMENT_THEORY = SGP/SGP4

EPOCH          = 2025-11-15T12:30:51.158880
MEAN_MOTION    = 12.44514154
ECCENTRICITY   = .0011192
INCLINATION    = 50.0089
RA_OF_ASC_NODE = 84.4097
ARG_OF_PERICENTER = 357.3672
MEAN_ANOMALY   = 83.0418

EPHEMERIS_TYPE = 0
CLASSIFICATION_TYPE = U
NORAD_CAT_ID   = 16908
ELEMENT_SET_NO = 999
REV_AT_EPOCH   = 45378
BSTAR          = -.16041E-4
MEAN_MOTION_DOT = -.1E-5
MEAN_MOTION_DDOT = 0

CCSDS_OMM_VERS = 2.0
CREATION_DATE  = 
ORIGINATOR     = 

OBJECT_NAME    = COSMOS 1812
OBJECT_ID      = 1987-003A
CENTER_NAME    = EARTH
REF_FRAME      = TEME
TIME_SYSTEM    = UTC
MEAN_ELEMENT_THEORY = SGP/SGP4

EPOCH          = 2025-11-15T11:51:58.052160
MEAN_MOTION    = 15.69967846
ECCENTRICITY   = .0005553
INCLINATION    = 82.4879
RA_OF_ASC_NODE = 321.3816
ARG_OF_PERICENTER = 132.1873
MEAN_ANOMALY   = 227.9861

EPHEMERIS_TYPE = 0
CLASSIFICATION_TYPE = U
NORAD_CAT_ID   = 17295
ELEMENT_SET_NO = 999
REV_AT_EPOCH   = 12637
BSTAR          = .65588E-3
MEAN_MOTION_DOT = .79257E-3
MEAN_MOTION_DDOT = 0

CCSDS_OMM_VERS = 2.0
CREATION_DATE  = 
ORIGINATOR     = 

OBJECT_NAME    = SL-14 R/B
OBJECT_ID      = 1987-024B
CENTER_NAME    = EARTH
REF_FRAME      = TEME
TIME_SYSTEM    = UTC
MEAN_ELEMENT_THEORY = SGP/SGP4

EPOCH          = 2025-11-14T10:20:28.814784
MEAN_MOTION    = 14.85984648
ECCENTRICITY   = .0016815
INCLINATION    = 82.5300
RA_OF_ASC_NODE = 201.0444
ARG_OF_PERICENTER = 284.0912
MEAN_ANOMALY   = 75.8436

EPHEMERIS_TYPE = 0
CLASSIFICATION_TYPE = U
NORAD_CAT_ID   = 17567
ELEMENT_SET_NO = 999
REV_AT_EPOCH   = 7101
BSTAR          = .11508E-3
MEAN_MOTION_DOT = .1031E-4
MEAN_MOTION_DDOT = 0

CCSDS_OMM_VERS = 2.0
CREATION_DATE  = 
ORIGINATOR     = 

OBJECT_NAME    = COSMOS 1833
OBJECT_ID      = 1987-027A
CENTER_NAME    = EARTH
REF_FRAME      = TEME
TIME_SYSTEM    = UTC
MEAN_ELEMENT_THEORY = SGP/SGP4

EPOCH          = 2025-11-15T09:24:59.737248
MEAN_MOTION    = 14.13019351
ECCENTRICITY   = .0021362
INCLINATION    = 70.9144
RA_OF_ASC_NODE = 206.2657
ARG_OF_PERICENTER = 10.2471
MEAN_ANOMALY   = 349.9081

EPHEMERIS_TYPE = 0
CLASSIFICATION_TYPE = U
NORAD_CAT_ID   = 17589
ELEMENT_SET_NO = 999
REV_AT_EPOCH   = 99416
BSTAR          = -.66482E-4
MEAN_MOTION_DOT = -.172E-5
MEAN_MOTION_DDOT = 0

CCSDS_OMM_VERS = 2.0
CREATION_DATE  = 
ORIGINATOR     = 

OBJECT_NAME    = SL-16 R/B
OBJECT_ID      = 1987-027B
CENTER_NAME    = EARTH
REF_FRAME      = TEME
TIME_SYSTEM    = UTC
MEAN_ELEMENT_THEORY = SGP/SGP4

EPOCH          = 2025-11-15T11:39:46.817856
MEAN_MOTION    = 14.17147660
ECCENTRICITY   = .0007248
INCLINATION    = 71.0004
RA_OF_ASC_NODE = 157.1467
ARG_OF_PERICENTER = 288.1362
MEAN_ANOMALY   = 71.8972

EPHEMERIS_TYPE = 0
CLASSIFICATION_TYPE = U
NORAD_CAT_ID   = 17590
ELEMENT_SET_NO = 999
REV_AT_EPOCH   = 99920
BSTAR          = -.32412E-4
MEAN_MOTION_DOT = -.113E-5
MEAN_MOTION_DDOT = 0

CCSDS_OMM_VERS = 2.0
CREATION_DATE  = 
ORIGINATOR     = 

OBJECT_NAME    = SL-14 R/B
OBJECT_ID      = 1987-038B
CENTER_NAME    = EARTH
REF_FRAME      = TEME
TIME_SYSTEM    = UTC
MEAN_ELEMENT_THEORY = SGP/SGP4

EPOCH          = 2025-11-15T12:17:15.643104
MEAN_MOTION    = 14.85223567
ECCENTRICITY   = .0019373
INCLINATION    = 82.5038
RA_OF_ASC_NODE = 44.3411
ARG_OF_PERICENTER = 177.6977
MEAN_ANOMALY   = 182.4332

EPHEMERIS_TYPE = 0
CLASSIFICATION_TYPE = U
NORAD_CAT_ID   = 17912
ELEMENT_SET_NO = 999
REV_AT_EPOCH   = 6228
BSTAR          = .12363E-3
MEAN_MOTION_DOT = .1087E-4
MEAN_MOTION_DDOT = 0

CCSDS_OMM_VERS = 2.0
CREATION_DATE  = 
ORIGINATOR     = 

OBJECT_NAME    = COSMOS 1844
OBJECT_ID      = 1987-041A
CENTER_NAME    = EARTH
REF_FRAME      = TEME
TIME_SYSTEM    = UTC
MEAN_ELEMENT_THEORY = SGP/SGP4

EPOCH          = 2025-11-15T08:04:20.073216
MEAN_MOTION    = 14.14524008
ECCENTRICITY   = .0031512
INCLINATION    = 70.8991
RA_OF_ASC_NODE = 275.3675
ARG_OF_PERICENTER = 198.5544
MEAN_ANOMALY   = 161.4431

EPHEMERIS_TYPE = 0
CLASSIFICATION_TYPE = U
NORAD_CAT_ID   = 17973
ELEMENT_SET_NO = 999
REV_AT_EPOCH   = 98741
BSTAR          = .2158E-3
MEAN_MOTION_DOT = .368E-5
MEAN_MOTION_DDOT = 0

CCSDS_OMM_VERS = 2.0
CREATION_DATE  = 
ORIGINATOR     = 

OBJECT_NAME    = SL-14 R/B
OBJECT_ID      = 1987-055B
CENTER_NAME    = EARTH
REF_FRAME      = TEME
TIME_SYSTEM    = UTC
MEAN_ELEMENT_THEORY = SGP/SGP4

EPOCH          = 2025-11-15T10:35:29.622048
MEAN_MOTION    = 14.85479301
ECCENTRICITY   = .0021518
INCLINATION    = 82.4977
RA_OF_ASC_NODE = 96.7133
ARG_OF_PERICENTER = 34.7586
MEAN_ANOMALY   = 325.5030

EPHEMERIS_TYPE = 0
CLASSIFICATION_TYPE = U
NORAD_CAT_ID   = 18153
ELEMENT_SET_NO = 999
REV_AT_EPOCH   = 5297
BSTAR          = .12273E-3
MEAN_MOTION_DOT = .1087E-4
MEAN_MOTION_DDOT = 0

CCSDS_OMM_VERS = 2.0
CREATION_DATE  = 
ORIGINATOR     = 

OBJECT_NAME    = COSMOS 1867
OBJECT_ID      = 1987-060A
CENTER_NAME    = EARTH
REF_FRAME      = TEME
TIME_SYSTEM    = UTC
MEAN_ELEMENT_THEORY = SGP/SGP4

EPOCH          = 2025-11-15T05:12:07.479072
MEAN_MOTION    = 14.31479812
ECCENTRICITY   = .0013691
INCLINATION    = 65.0103
RA_OF_ASC_NODE = 267.2761
ARG_OF_PERICENTER = 268.3774
MEAN_ANOMALY   = 91.5743

EPHEMERIS_TYPE = 0
CLASSIFICATION_TYPE = U
NORAD_CAT_ID   = 18187
ELEMENT_SET_NO = 999
REV_AT_EPOCH   = 355
BSTAR          = .69867E-4
MEAN_MOTION_DOT = .86E-6
MEAN_MOTION_DDOT = 0

